[{"OBJECT_NAME":"OBJECT A","OBJECT_ID":"2023-189A","EPOCH":"2026-03-09T22:59:06.381600","MEAN_MOTION":15.32403275,"ECCENTRICITY":0.00094831,"INCLINATION":97.4458,"RA_OF_ASC_NODE":86.5997,"ARG_OF_PERICENTER":249.5377,"MEAN_ANOMALY":110.4847,"EPHEMERIS_TYPE":0,"CLASSIFICATION_TYPE":"U","NORAD_CAT_ID":58502,"ELEMENT_SET_NO":999,"REV_AT_EPOCH":12601,"BSTAR":0.00019874471,"MEAN_MOTION_DOT":6.146e-5,"MEAN_MOTION_DDOT":0},{"OBJECT_NAME":"STARLINK-32409","OBJECT_ID":"2024-187T","EPOCH":"2026-03-09T22:55:20.411904","MEAN_MOTION":15.30201446,"ECCENTRICITY":0.00012699,"INCLINATION":53.1613,"RA_OF_ASC_NODE":48.9209,"ARG_OF_PERICENTER":75.3843,"MEAN_ANOMALY":284.7298,"EPHEMERIS_TYPE":0,"CLASSIFICATION_TYPE":"U","NORAD_CAT_ID":61591,"ELEMENT_SET_NO":999,"REV_AT_EPOCH":7933,"BSTAR":-3.2707094e-5,"MEAN_MOTION_DOT":-1.328e-5,"MEAN_MOTION_DDOT":0}]
